satname,norad_id,inclination_deg,eccentricity,mean_motion_rev_per_day,perigee_km,apogee_km,l1,l2
STARLINK-1238,45233,53.0316,0.0005214,16.17556982,222.7497553139865,229.63675090192828,1 45233U 20012BH  25275.55913317  .01683325  26422-2  10730-2 0  9996,2 45233  53.0316 315.3045 0005214  13.3517 346.7656 16.17556982312126
STARLINK-1246,45235,53.0549,0.0001405,15.06390946,546.2662919120758,548.2123226544236,1 45235U 20012BK  25275.67215426 -.00000605  00000+0 -21699-4 0  9991,2 45235  53.0549  35.9852 0001405 105.0268 255.0877 15.06390946311047
STARLINK-1247,45236,53.0344,0.0003786,16.10613177,242.6541384278098,247.66930021808093,1 45236U 20012BL  25275.52481037  .01028117  64249-3  10292-2 0  9990,2 45236  53.0344 295.7794 0003786  32.4573 327.6693 16.10613177312401
STARLINK-1270,45237,53.057,0.0001818,15.06373399,546.0340441818989,548.5521305616676,1 45237U 20012BM  25275.47681122 -.00004520  00000+0 -28491-3 0  9997,2 45237  53.0570 356.8654 0001818  92.1182 268.0015 15.06373399311554
STARLINK-1279,45360,53.0529,0.0001125,15.06432182,546.3338358825313,547.8920171159934,1 45360U 20019A   25275.30261367  .00011662  00000+0  79980-3 0  9990,2 45360  53.0529 127.6438 0001125  94.6940 265.4177 15.06432182306267
STARLINK-1301,45361,53.0529,0.0001425,15.06398027,546.230741874514,548.2044679369119,1 45361U 20019B   25274.89258640  .00016665  00000+0  11351-2 0  9999,2 45361  53.0529 139.4877 0001425  74.5543 285.5604 15.06398027306071
STARLINK-1306,45362,53.0492,0.0009672,15.59473039,382.63579626610044,395.72649648845254,1 45362U 20019C   25275.66668980  .00137314  00000+0  16763-2 0  9995,2 45362  53.0492 135.2586 0009672 129.8770 338.7565 15.59473039  5944
STARLINK-1262,45366,53.052,0.0001816,15.0641113,545.9198091978706,548.4350834047664,1 45366U 20019G   25275.38833135  .00014705  00000+0  10037-2 0  9990,2 45366  53.0520 157.2589 0001816  80.7125 279.4069 15.06411130305879
STARLINK-1273,45367,53.0528,0.0001338,15.06408868,546.2577709283369,548.1109869293368,1 45367U 20019H   25275.41044367  .00027016  00000+0  18252-2 0  9992,2 45367  53.0528 157.1620 0001338  77.0442 283.0697 15.06408868305875
STARLINK-1276,45368,53.0529,0.000138,15.06390484,546.2850211354453,548.1964253870647,1 45368U 20019J   25275.38096529  .00005623  00000+0  39621-3 0  9990,2 45368  53.0529 157.2963 0001380 105.0537 255.0604 15.06390484305873
STARLINK-1277,45369,53.0521,0.0001542,15.0637616,546.216725053725,548.352525082897,1 45369U 20019K   25275.37366903  .00002037  00000+0  15570-3 0  9999,2 45369  53.0521 157.9566 0001542  97.4380 262.6784 15.06376160305869
STARLINK-1281,45370,53.0536,0.0001231,15.06355232,546.4962415104574,548.2012961067376,1 45370U 20019L   25274.97183624 -.00007203  00000+0 -46576-3 0  9995,2 45370  53.0536 159.1321 0001231  59.3303 300.7808 15.06355232305810
STARLINK-1300,45374,53.0515,0.0001452,15.06391148,546.2331236262862,548.2442527261328,1 45374U 20019Q   25275.39202414  .00006300  00000+0  44156-3 0  9992,2 45374  53.0515 157.2428 0001452 104.3607 255.7543 15.06391148305878
STARLINK-1302,45375,53.0524,0.000182,15.06396431,545.9620810024926,548.4829118591933,1 45375U 20019R   25275.40676558  .00004981  00000+0  35308-3 0  9991,2 45375  53.0524 157.1804 0001820  75.9484 284.1707 15.06396431305879
STARLINK-1304,45376,53.0523,0.0001363,15.06415615,546.2197821401514,548.1076191111424,1 45376U 20019S   25275.09345611  .00022689  00000+0  15365-2 0  9995,2 45376  53.0523 158.5871 0001363 105.1325 254.9815 15.06415615305826
STARLINK-1305,45377,53.0514,0.0001402,15.06403051,546.2312745216514,548.1731396353161,1 45377U 20019T   25275.38465183  .00007443  00000+0  51802-3 0  9993,2 45377  53.0514 157.2759 0001402  75.8530 284.2615 15.06403051305873
STARLINK-1319,45379,53.0537,0.0001375,15.06420238,546.1973051793375,548.1017589756584,1 45379U 20019V   25275.37726813  .00003760  00000+0  27106-3 0  9992,2 45379  53.0537 157.3130 0001375  79.7394 280.3750 15.06420238305877
STARLINK-1258,45381,53.0272,0.0004129,16.44800409,150.36709052106016,155.76055616097528,1 45381U 20019X   25275.93847714  .12181432  12487-4  38443-3 0  9990,2 45381  53.0272  70.4829 0004129 263.4044  96.6534 16.44800409307123
STARLINK-1266,45383,53.053,0.0001282,15.06405534,546.3067695664986,548.0824245879894,1 45383U 20019Z   25275.31276713  .00004947  00000+0  35072-3 0  9999,2 45383  53.0530 137.6035 0001282 106.5247 253.5882 15.06405534306133
STARLINK-1267,45384,53.0541,0.0001569,15.06403067,546.1155723270576,548.2887437548507,1 45384U 20019AA  25275.03271860 -.00001694  00000+0 -94840-4 0  9994,2 45384  53.0541 139.5169 0001569  89.3944 270.7225 15.06403067306080
STARLINK-1272,45386,53.0531,0.0001504,15.0641219,546.132630791778,548.2157644000163,1 45386U 20019AC  25274.90732282  .00016342  00000+0  11131-2 0  9995,2 45386  53.0531 139.4226 0001504  71.6450 288.4703 15.06412190306072
STARLINK-1274,45387,53.0339,0.0008695,15.25803597,482.40301486134103,494.3438765264036,1 45387U 20019AD  25274.81841120  .00073609  00000+0  28245-2 0  9991,2 45387  53.0339 129.5195 0008695 115.5388 244.6509 15.25803597306209
STARLINK-1280,45388,53.0528,0.0001401,15.06444628,546.1045607517963,548.0450050933723,1 45388U 20019AE  25274.96445225  .00021118  00000+0  14307-2 0  9996,2 45388  53.0528 159.1662 0001401  75.4919 284.6226 15.06444628305798
STARLINK-1283,45389,53.0522,0.0001335,15.06377928,546.3546632017851,548.2037493288581,1 45389U 20019AF  25275.34226009 -.00002948  00000+0 -17921-3 0  9995,2 45389  53.0522 137.4693 0001335  90.2711 269.8431 15.06377928306148
STARLINK-1284,45390,53.0528,0.0001196,15.06401899,546.3774667914586,548.034008774337,1 45390U 20019AG  25275.31645949  .00006052  00000+0  42482-3 0  9990,2 45390  53.0528 137.5865 0001196  67.9191 292.1925 15.06401899306137
STARLINK-1292,45394,53.0533,0.0004022,15.77719205,334.20369361923986,339.6052729884095,1 45394U 20019AL  25275.66668980  .00240030  00000+0  13676-2 0  9990,2 45394  53.0533 102.5918 0004022 215.6206 210.7174 15.77719205  5980
STARLINK-1297,45395,53.0516,0.0001304,15.06405511,546.2916043190498,548.0977308179508,1 45395U 20019AM  25275.35332039  .00009605  00000+0  66272-3 0  9992,2 45395  53.0516 137.4193 0001304  74.2820 285.8313 15.06405511305328
STARLINK-1307,45397,53.0516,0.0001258,15.06386681,546.3811650718762,548.1235930396451,1 45397U 20019AP  25275.34594698 -.00000337  00000+0 -37506-5 0  9999,2 45397  53.0516 137.4505 0001258  91.8568 268.2565 15.06386681305969
STARLINK-1312,45398,53.0475,0.0007068,15.7693719,334.3765658985776,343.87208650929915,1 45398U 20019AQ  25275.66668980  .00273980  00000+0  16079-2 0  9994,2 45398  53.0475 102.1480 0007068 138.3486  83.1500 15.76937190  5971
STARLINK-1255,45399,53.052,0.0001221,15.06393771,546.3850616019799,548.076236381864,1 45399U 20019AR  25275.31369898  .00006967  00000+0  48620-3 0  9990,2 45399  53.0520 127.5977 0001221 106.5130 253.5993 15.06393771306082
STARLINK-1259,45403,53.0452,0.000329,15.90264504,299.344468494538,303.73969733109425,1 45403U 20019AV  25275.66668980  .00380831  65168-4  12356-2 0  9990,2 45403  53.0452  83.0869 0003290 112.5323 303.2016 15.90264504  6010
STARLINK-1260,45404,53.0534,0.0001981,15.06394622,545.8561259681619,548.5999555973203,1 45404U 20019AW  25274.81609024  .00001054  00000+0  89674-4 0  9996,2 45404  53.0534 129.8317 0001981  88.9151 271.2065 15.06394622305910
STARLINK-1263,45405,53.0526,0.0001503,15.06406813,546.1498004033501,548.2315539031033,1 45405U 20019AX  25275.33212537  .00005985  00000+0  42030-3 0  9995,2 45405  53.0526 127.5148 0001503  81.3679 278.7480 15.06406813305998
STARLINK-1265,45406,53.0542,0.0001785,15.06425129,545.8983812728402,548.3707032134216,1 45406U 20019AY  25275.00775194  .00011732  00000+0  80466-3 0  9995,2 45406  53.0542 128.9693 0001785 100.1143 260.0048 15.06425129305945
STARLINK-1278,45408,53.0535,0.0001494,15.06378334,546.2433049083802,548.3126188989963,1 45408U 20019BA  25275.36621354  .00000726  00000+0  67655-4 0  9991,2 45408  53.0535 157.3620 0001494  88.0025 272.1135 15.06378334305581
STARLINK-1296,45412,53.0528,0.0001324,15.06405166,546.2788108847835,548.1126389903475,1 45412U 20019BE  25274.87876561  .00015662  00000+0  10679-2 0  9990,2 45412  53.0528 129.5490 0001324 101.4976 258.6162 15.06405166305922
STARLINK-1298,45413,53.0508,0.001039,15.44907784,424.5736763854238,438.7244117850332,1 45413U 20019BF  25275.28067725  .00137834  00000+0  28393-2 0  9999,2 45413  53.0508 112.6840 0010390 141.0621 219.1135 15.44907784306291
STARLINK-1309,45414,53.0529,0.0001342,15.06405174,546.2663207704618,548.1250800672542,1 45414U 20019BG  25275.29157356  .00002584  00000+0  19226-3 0  9990,2 45414  53.0529 127.6973 0001342 101.9124 258.2015 15.06405174305977
STARLINK-1316,45415,53.0546,0.0001466,15.0639862,546.2005307241106,548.231044161389,1 45415U 20019BH  25275.31737892 -.00000430  00000+0 -99447-5 0  9998,2 45415  53.0546 127.5783 0001466  86.9306 273.1850 15.06398620306012
STARLINK-1318,45416,53.0525,5.46e-05,15.56944326,396.1367007298859,396.87649181059805,1 45416U 20019BJ  25275.70484682  .00072206  00000+0  98226-3 0  9998,2 45416  53.0525 104.1855 0000546 263.5067  96.5882 15.56944326306361
STARLINK-1286,45417,53.0522,0.0001537,15.06413189,546.1067159872846,548.2355557082456,1 45417U 20019BK  25275.08978260  .00023697  00000+0  16038-2 0  9990,2 45417  53.0522 158.6033 0001537  70.3806 289.7349 15.06413189305813
STARLINK-1308,45419,53.0518,0.0001451,15.06408438,546.1808324809817,548.1905611275943,1 45419U 20019BM  25275.08609993  .00023180  00000+0  15696-2 0  9992,2 45419  53.0518 158.6204 0001451 107.7252 252.3896 15.06408438305561
STARLINK-1329,45531,53.0522,0.0001355,15.06399299,546.2753213824308,548.1520914238663,1 45531U 20025A   25275.65188154  .00004096  00000+0  29368-3 0  9995,2 45531  53.0522  96.0775 0001355  83.0236 277.0907 15.06399299301275
